#cP2011  3 31  6  0  0.00000000     192 ORBIT IGS05 HLM  IGS
## 1629 367200.00000000   900.00000000 55651 0.2500000000000
+   31   G02G03G04G05G06G07G08G09G10G11G12G13G14G15G16G17G18
+        G19G20G21G22G23G24G25G26G27G28G29G30G31G32  0  0  0
+          0  0  0  0  0  0  0  0  0  0  0  0  0  0  0  0  0
+          0  0  0  0  0  0  0  0  0  0  0  0  0  0  0  0  0
+          0  0  0  0  0  0  0  0  0  0  0  0  0  0  0  0  0
++         5  4  4  4  4  4  4  4  4  4  5  4  4  4  3  4  4
++         4  4  5  4  4  5  4  3  4  3  4  3  4  4  0  0  0
++         0  0  0  0  0  0  0  0  0  0  0  0  0  0  0  0  0
++         0  0  0  0  0  0  0  0  0  0  0  0  0  0  0  0  0
++         0  0  0  0  0  0  0  0  0  0  0  0  0  0  0  0  0
%c G  cc GPS ccc cccc cccc cccc cccc ccccc ccccc ccccc ccccc
%c cc cc ccc ccc cccc cccc cccc cccc ccccc ccccc ccccc ccccc
%f  1.2500000  1.025000000  0.00000000000  0.000000000000000
%f  0.0000000  0.000000000  0.00000000000  0.000000000000000
%i    0    0    0    0      0      0      0      0         0
%i    0    0    0    0      0      0      0      0         0
/* ULTRA ORBIT COMBINATION 16295_06 (55652.250) FROM:       
/* cou emu esu gfu siu usu                                  
/* REFERENCED TO emu CLOCK AND TO WEIGHTED MEAN POLE:       
/* PCV:IGS05_1627 OL/AL:FES2004  NONE     Y  ORB:CMB CLK:CMB
*  2011  3 31 20 15  0.00000000
PG02  13286.662300  23271.554566   1335.201019    328.150887  9  3  5 211       
PG03 -14882.479402 -12150.815527 -18874.957997    695.859392  9 11  7 188       
PG04   3432.452469  23091.865574  12126.760001     75.784516  7  9 10 148       
PG05   6690.860281  16588.452709 -19620.382983   -137.649399 10  8  4 209       
PG06 -10286.611557 -14041.425031 -19953.209459   -218.968418 10 11  4 165       
PG07 -11773.229724   9306.312937 -21899.682202      6.965322  8  3  4 191       
PG08  -4646.544415  18014.395494 -18702.119756      7.626210  9  8  6 181       
PG09  18571.284825  10418.059286  15333.964165     71.005952  7  8  8 221       
PG10  -6265.911935  23932.191075  -9355.472380    -70.357491  6     6 215       
PG11 -22212.318267  -8420.696578  11895.486898   -138.960168  7  3  8  57       
PG12  16564.987694   -510.381037  20745.459298    -15.149380  2  8  7 206       
PG13 -23516.089970   5782.506063 -11111.697792    276.915404  3  8  6 205       
PG14   7903.673703 -13901.166809  21336.077838    141.078116  7  9  6 212       
PG15  25270.339961   4338.987261  -7239.230252   -138.847191  7     6 199       
PG16  -4226.378776 -17933.599627 -18985.089704   -161.786317     9  4 129       
PG17  -8460.201717  14380.265368  20750.417820    184.202318  8  3  6 198       
PG18  16127.756368 -20108.303836  -5220.606918    129.447665  3  7  3 180       
PG19 -23172.750533  -8686.148119 -10095.761108   -125.786621  5  7  9 228       
PG20 -18105.486257   5351.440661  18508.562652     48.816421  8  4  5 219       
PG21  11710.676935 -10658.770523 -20871.557785   -134.272541  9  8  8 219       
PG22   9817.749500 -24140.146375   5007.524000    150.901764  4  7  6 222       
PG23 -26709.311548   -744.756325   1213.300306    316.416325  3  6  4 160       
PG24 -18421.931555  -7790.889181  17666.795937    377.871820 10 10  5 143       
PG25  18039.377186 -14654.327386  12825.896665     -0.961208  2  6  6 186       
PG26  16599.102102  12484.925426 -17383.197501   -160.053232  5  7  4 250       
PG27  19291.579854  14588.053421  11984.336859    251.146884  4  9  7 220       
PG28 -12426.501734  23246.943993   2243.358135     28.564626  5  6  5 179       
PG29  25043.633505  -4604.489830  -7393.454864    196.466062  6 10  8 192       
PG30    543.822561 -22834.933123 -13935.344247    333.438190  4  7  2 168       
PG31  -5324.261281 -23597.615856  10919.741270     60.420667  6  7  7 222       
PG32 -15032.299854  -4990.165764  21559.783548   -226.103989     9  6 219       
*  2011  3 31 20 30  0.00000000
PG02  12889.547875  23171.203845   4097.675885    328.153003  9     4 206       
PG03 -12785.646772 -12645.332037 -20047.060611    695.863818  9 11  6 187       
PG04   2356.174945  21926.349450  14341.676371     75.793652  7 10  9 120       
PG05   5581.050843  18455.437677 -18241.448598   -137.654738 10  8  5 210       
PG06  -7941.085401 -14366.234536 -20751.143954   -219.074130  9 11  3 157       
PG07 -13121.056441   7193.893229 -21947.274581      6.966370  8  3  4 191       
PG08  -5785.904348  16088.011700 -20133.723145      7.624989  9  8  6 181       
PG09  19394.658434  11926.107324  13136.925875     71.006571  7  7  9 217       
PG10  -6952.242104  24588.175255  -6706.389740    -70.358260  5  1  5 209       
PG11 -22894.920486  -9563.183240   9608.233297   -138.963320  7  4  8 125       
PG12  15485.231588   1646.992185  21522.367440    -15.146842     8  7 208       
PG13 -24609.384207   5600.602285  -8500.543399    276.914365  4  8  6 201       
PG14  10253.666131 -13814.529943  20351.093852    141.080647  8  9  7 211       
PG15  24313.920806   4653.231843  -9834.330069   -138.844435  7     7 188       
PG16  -3089.367522 -19695.127324 -17366.985479   -161.789029     8  4 122       
PG17 -10753.501144  14320.974548  19675.685599    184.202310  8  2  7 196       
PG18  16058.527429 -19240.429843  -7903.486681    129.449259  3  7  2 174       
PG19 -21883.006861  -8841.547087 -12514.370481   -125.789979  5  7  9 229       
PG20 -17295.518190   3271.911188  19723.851682     48.816053  8  4  6 219       
PG21  13081.261417  -8570.902533 -21071.207314   -134.274406  9  8  9 223       
PG22  10308.184446 -24329.442595   2247.221031    150.901070  4  7  6 220       
PG23 -26419.764010   -971.772212   4036.472254    316.414018  4  6  4 170       
PG24 -19220.664919  -9526.854230  15893.560335    377.874110 11 10  6 136       
PG25  17501.220951 -13139.594740  15023.667848     -0.961576  3  7  7 195       
PG26  14638.352015  12499.237293 -19073.567957   -160.062804  4  8  3 248       
PG27  19832.308022  15586.341554   9461.067337    251.149939  4  8  7 216       
PG28 -12651.596307  23159.997444   -651.594980     28.566663  5  6  5 171       
PG29  25745.562867  -4363.693113  -4646.042203    196.468445  7 10  8 188       
PG30   1316.335401 -24025.736150 -11618.416370    333.440535  4  7  2 152       
PG31  -4447.256783 -22538.528708  13345.865720     60.425337  7  7  7 226       
PG32 -13772.931020  -7066.713040  21858.411596   -226.110820     9  7 221       
*  2011  3 31 20 45  0.00000000
PG02  12304.526288  22847.677240   6791.719540    328.155066  8  1  3 201       
PG03 -10605.812452 -13266.316313 -20888.206563    695.868035  9 11  4 184       
PG04   1085.828411  20620.550433  16302.574219     75.802825  7 10  9 127       
PG05   4637.468007  20218.163136 -16547.988724   -137.660098  9  7  6 209       
PG06  -5542.155635 -14814.310448 -21187.894953   -219.180338  9 11  3 153       
PG07 -14571.066840   5172.398169 -21617.353818      6.967189  7  2  3 190       
PG08  -7105.403150  14110.611393 -21213.102753      7.623948  9  8  6 188       
PG09  20137.652611  13170.582999  10706.640380     71.008440  6  7  9 215       
PG10  -7476.597671  24998.909868  -3940.033158    -70.359939  4  2  6 207       
PG11 -23420.478096 -10503.522584   7156.457343   -138.965775  7  5  8 148       
PG12  14496.589329   3919.051158  21929.164786    -15.144186     8  6 211       
PG13 -25408.319408   5471.424862  -5744.268699    276.912898  5  7  6 198       
PG14  12476.067793 -13852.194505  19019.391402    141.082599  8  9  7 209       
PG15  23093.543670   5051.067550 -12261.625175   -138.841780  7  2  7 178       
PG16  -2135.243309 -21334.823678 -15445.936607   -161.791420  3  8  5 108       
PG17 -12909.378578  14370.243073  18264.119464    184.202619  8  3  8 194       
PG18  15904.762168 -18098.359623 -10445.904273    129.450886  2  7  2 176       
PG19 -20342.131638  -9071.280392 -14721.288744   -125.793382  6  7  9 219       
PG20 -16540.717823   1046.450300  20594.956777     48.816308  8  4  6 220       
PG21  14544.325930  -6552.994626 -20894.924912   -134.277141  9  9  9 223       
PG22  10656.774856 -24257.309493   -551.926641    150.900379  4  6  6 220       
PG23 -25830.730914  -1244.308025   6791.583848    316.411912  5  5  4 178       
PG24 -19989.508575 -11039.170091  13851.016483    377.877004 11 10  8 137       
PG25  16951.294747 -11383.094535  16962.457121     -0.961984  3  6  6 201       
PG26  12512.802642  12633.092022 -20454.838897   -160.072031  5  7  2 247       
PG27  20245.432547  16331.553530   6781.781972    251.154462  4  7  7 213       
PG28 -12739.280399  22786.775990  -3535.072480     28.568844  6  6  5 185       
PG29  26143.350141  -4138.423311  -1818.318753    196.471099  7 10  9 188       
PG30   1929.622239 -25004.336005  -9105.116114    333.444043  5  6  2 159       
PG31  -3362.934936 -21317.298525  15542.539462     60.429676  7  6  7 229       
PG32 -12619.008572  -9213.588959  21790.284929   -226.117441  2  9  7 220       
EOF
